{"fetched_at":"2026-07-09T18:17:14.308Z","source":"https://celestrak.org/NORAD/elements/gp.php?NAME=NUSAT&FORMAT=JSON","constellation":"satellogic","records":[{"OBJECT_NAME":"NUSAT-47","OBJECT_ID":"2025-276CF","EPOCH":"2026-07-08T18:01:52.007232","CLASSIFICATION_TYPE":"U","MEAN_MOTION":15.20538982,"ECCENTRICITY":0.00002775,"INCLINATION":97.4181,"RA_OF_ASC_NODE":263.0192,"ARG_OF_PERICENTER":335.2598,"MEAN_ANOMALY":24.8624,"EPHEMERIS_TYPE":0,"NORAD_CAT_ID":66743,"ELEMENT_SET_NO":999,"REV_AT_EPOCH":3370,"BSTAR":0.0002004599,"MEAN_MOTION_DOT":0.00004317,"MEAN_MOTION_DDOT":0},{"OBJECT_NAME":"NUSAT-53 (JANE GOODALL)","OBJECT_ID":"2026-067S","EPOCH":"2026-07-08T21:02:54.300768","CLASSIFICATION_TYPE":"U","MEAN_MOTION":15.18807355,"ECCENTRICITY":0.00013709,"INCLINATION":97.4566,"RA_OF_ASC_NODE":148.0797,"ARG_OF_PERICENTER":9.9354,"MEAN_ANOMALY":350.1907,"EPHEMERIS_TYPE":0,"NORAD_CAT_ID":68432,"ELEMENT_SET_NO":999,"REV_AT_EPOCH":1523,"BSTAR":0.00016829406,"MEAN_MOTION_DOT":0.00003434,"MEAN_MOTION_DDOT":0},{"OBJECT_NAME":"NUSAT-54 (BRANCA MARQUES)","OBJECT_ID":"2026-067AC","EPOCH":"2026-07-08T20:45:44.098272","CLASSIFICATION_TYPE":"U","MEAN_MOTION":15.17956338,"ECCENTRICITY":0.00045678,"INCLINATION":97.4548,"RA_OF_ASC_NODE":147.9206,"ARG_OF_PERICENTER":20.6184,"MEAN_ANOMALY":339.5233,"EPHEMERIS_TYPE":0,"NORAD_CAT_ID":68442,"ELEMENT_SET_NO":999,"REV_AT_EPOCH":1522,"BSTAR":0.00015040734,"MEAN_MOTION_DOT":0.00002987,"MEAN_MOTION_DDOT":0}]}
