NUSAT-47                
1 66743U 25276CF  26189.75129638  .00004317  00000+0  20046-3 0  9994
2 66743  97.4181 263.0192 0000277 335.2598  24.8624 15.20538982 33704
NUSAT-53 (JANE GOODALL) 
1 68432U 26067S   26189.87701737  .00003434  00000+0  16829-3 0  9992
2 68432  97.4566 148.0797 0001370   9.9354 350.1907 15.18807355 15238
NUSAT-54 (BRANCA MARQU*)
1 68442U 26067AC  26189.86509373  .00002987  00000+0  15041-3 0  9991
2 68442  97.4548 147.9206 0004567  20.6184 339.5233 15.17956338 15221
